[{"OBJECT_NAME":"SALSAT","OBJECT_ID":"2020-068K","EPOCH":"2026-03-09T22:26:21.804576","MEAN_MOTION":15.28191989,"ECCENTRICITY":0.00082652,"INCLINATION":97.8859,"RA_OF_ASC_NODE":66.0795,"ARG_OF_PERICENTER":295.8051,"MEAN_ANOMALY":64.2334,"EPHEMERIS_TYPE":0,"CLASSIFICATION_TYPE":"U","NORAD_CAT_ID":46495,"ELEMENT_SET_NO":999,"REV_AT_EPOCH":30019,"BSTAR":0.00040842582,"MEAN_MOTION_DOT":0.00011156,"MEAN_MOTION_DDOT":0},{"OBJECT_NAME":"STARLINK-33652","OBJECT_ID":"2025-065B","EPOCH":"2026-03-09T03:48:55.836576","MEAN_MOTION":15.275786,"ECCENTRICITY":0.00011441,"INCLINATION":43.001,"RA_OF_ASC_NODE":109.6567,"ARG_OF_PERICENTER":267.3836,"MEAN_ANOMALY":92.6884,"EPHEMERIS_TYPE":0,"CLASSIFICATION_TYPE":"U","NORAD_CAT_ID":63400,"ELEMENT_SET_NO":999,"REV_AT_EPOCH":5276,"BSTAR":0.00080246304,"MEAN_MOTION_DOT":0.00021884,"MEAN_MOTION_DDOT":0}]
